[{"OBJECT_NAME":"ONEWEB-0411","OBJECT_ID":"2022-012B","EPOCH":"2026-02-01T07:49:01.986816","MEAN_MOTION":13.10370589,"ECCENTRICITY":0.00018698,"INCLINATION":87.875,"RA_OF_ASC_NODE":63.3393,"ARG_OF_PERICENTER":112.9253,"MEAN_ANOMALY":247.2071,"EPHEMERIS_TYPE":0,"CLASSIFICATION_TYPE":"U","NORAD_CAT_ID":51623,"ELEMENT_SET_NO":999,"REV_AT_EPOCH":19149,"BSTAR":-0.0004849008,"MEAN_MOTION_DOT":-1.57e-6,"MEAN_MOTION_DDOT":0},{"OBJECT_NAME":"ONEWEB-0415","OBJECT_ID":"2022-012C","EPOCH":"2026-02-01T07:44:15.025632","MEAN_MOTION":13.10369243,"ECCENTRICITY":0.00018968,"INCLINATION":87.8751,"RA_OF_ASC_NODE":63.342,"ARG_OF_PERICENTER":106.6997,"MEAN_ANOMALY":253.4339,"EPHEMERIS_TYPE":0,"CLASSIFICATION_TYPE":"U","NORAD_CAT_ID":51624,"ELEMENT_SET_NO":999,"REV_AT_EPOCH":19149,"BSTAR":-0.00044382463,"MEAN_MOTION_DOT":-1.42e-6,"MEAN_MOTION_DDOT":0},{"OBJECT_NAME":"ONEWEB-0416","OBJECT_ID":"2022-012D","EPOCH":"2026-02-01T00:41:09.221280","MEAN_MOTION":13.1037136,"ECCENTRICITY":0.00021889,"INCLINATION":87.8753,"RA_OF_ASC_NODE":63.4217,"ARG_OF_PERICENTER":105.206,"MEAN_ANOMALY":254.9309,"EPHEMERIS_TYPE":0,"CLASSIFICATION_TYPE":"U","NORAD_CAT_ID":51625,"ELEMENT_SET_NO":999,"REV_AT_EPOCH":19149,"BSTAR":-0.001556783,"MEAN_MOTION_DOT":-5.31e-6,"MEAN_MOTION_DDOT":0},{"OBJECT_NAME":"ONEWEB-0422","OBJECT_ID":"2022-012E","EPOCH":"2026-01-31T23:56:59.859456","MEAN_MOTION":13.17651048,"ECCENTRICITY":0.00011662,"INCLINATION":87.9102,"RA_OF_ASC_NODE":32.9076,"ARG_OF_PERICENTER":81.8893,"MEAN_ANOMALY":278.237,"EPHEMERIS_TYPE":0,"CLASSIFICATION_TYPE":"U","NORAD_CAT_ID":51626,"ELEMENT_SET_NO":999,"REV_AT_EPOCH":19587,"BSTAR":7.2409689e-5,"MEAN_MOTION_DOT":4.1e-7,"MEAN_MOTION_DDOT":0},{"OBJECT_NAME":"ONEWEB-0423","OBJECT_ID":"2022-012F","EPOCH":"2026-02-01T07:04:39.515520","MEAN_MOTION":13.17647884,"ECCENTRICITY":0.00017874,"INCLINATION":87.91,"RA_OF_ASC_NODE":32.8579,"ARG_OF_PERICENTER":85.1082,"MEAN_ANOMALY":275.0254,"EPHEMERIS_TYPE":0,"CLASSIFICATION_TYPE":"U","NORAD_CAT_ID":51627,"ELEMENT_SET_NO":999,"REV_AT_EPOCH":19580,"BSTAR":0.0002854917,"MEAN_MOTION_DOT":1.24e-6,"MEAN_MOTION_DDOT":0},{"OBJECT_NAME":"ONEWEB-0425","OBJECT_ID":"2022-012G","EPOCH":"2026-02-01T00:55:29.698752","MEAN_MOTION":13.10374188,"ECCENTRICITY":0.00021142,"INCLINATION":87.8761,"RA_OF_ASC_NODE":63.3952,"ARG_OF_PERICENTER":87.5795,"MEAN_ANOMALY":272.5574,"EPHEMERIS_TYPE":0,"CLASSIFICATION_TYPE":"U","NORAD_CAT_ID":51628,"ELEMENT_SET_NO":999,"REV_AT_EPOCH":19149,"BSTAR":-0.0018755109,"MEAN_MOTION_DOT":-6.42e-6,"MEAN_MOTION_DDOT":0},{"OBJECT_NAME":"ONEWEB-0428","OBJECT_ID":"2022-012H","EPOCH":"2026-02-01T07:46:38.294976","MEAN_MOTION":13.10369895,"ECCENTRICITY":0.00017943,"INCLINATION":87.8753,"RA_OF_ASC_NODE":63.3532,"ARG_OF_PERICENTER":94.4879,"MEAN_ANOMALY":265.6453,"EPHEMERIS_TYPE":0,"CLASSIFICATION_TYPE":"U","NORAD_CAT_ID":51629,"ELEMENT_SET_NO":999,"REV_AT_EPOCH":19149,"BSTAR":-0.00041583533,"MEAN_MOTION_DOT":-1.32e-6,"MEAN_MOTION_DDOT":0},{"OBJECT_NAME":"ONEWEB-0431","OBJECT_ID":"2022-012J","EPOCH":"2026-02-01T01:33:34.163136","MEAN_MOTION":13.10374032,"ECCENTRICITY":0.00017193,"INCLINATION":87.8763,"RA_OF_ASC_NODE":63.3879,"ARG_OF_PERICENTER":115.5158,"MEAN_ANOMALY":244.6148,"EPHEMERIS_TYPE":0,"CLASSIFICATION_TYPE":"U","NORAD_CAT_ID":51630,"ELEMENT_SET_NO":999,"REV_AT_EPOCH":19151,"BSTAR":0.0018661287,"MEAN_MOTION_DOT":6.64e-6,"MEAN_MOTION_DDOT":0},{"OBJECT_NAME":"ONEWEB-0434","OBJECT_ID":"2022-012K","EPOCH":"2026-02-01T01:00:28.768032","MEAN_MOTION":13.1037494,"ECCENTRICITY":0.00023018,"INCLINATION":87.8752,"RA_OF_ASC_NODE":63.4246,"ARG_OF_PERICENTER":81.2146,"MEAN_ANOMALY":278.9242,"EPHEMERIS_TYPE":0,"CLASSIFICATION_TYPE":"U","NORAD_CAT_ID":51631,"ELEMENT_SET_NO":999,"REV_AT_EPOCH":19149,"BSTAR":-0.0017609226,"MEAN_MOTION_DOT":-6.02e-6,"MEAN_MOTION_DDOT":0},{"OBJECT_NAME":"ONEWEB-0435","OBJECT_ID":"2022-012L","EPOCH":"2026-02-01T01:12:14.315616","MEAN_MOTION":13.10377692,"ECCENTRICITY":0.00014373,"INCLINATION":87.8756,"RA_OF_ASC_NODE":63.413,"ARG_OF_PERICENTER":92.2379,"MEAN_ANOMALY":267.8913,"EPHEMERIS_TYPE":0,"CLASSIFICATION_TYPE":"U","NORAD_CAT_ID":51632,"ELEMENT_SET_NO":999,"REV_AT_EPOCH":19148,"BSTAR":4.3113234e-5,"MEAN_MOTION_DOT":2.8e-7,"MEAN_MOTION_DDOT":0},{"OBJECT_NAME":"ONEWEB-0436","OBJECT_ID":"2022-012M","EPOCH":"2026-02-01T06:52:30.504288","MEAN_MOTION":13.17647845,"ECCENTRICITY":0.00016562,"INCLINATION":87.9099,"RA_OF_ASC_NODE":32.838,"ARG_OF_PERICENTER":91.725,"MEAN_ANOMALY":268.4072,"EPHEMERIS_TYPE":0,"CLASSIFICATION_TYPE":"U","NORAD_CAT_ID":51633,"ELEMENT_SET_NO":999,"REV_AT_EPOCH":19578,"BSTAR":0.0002796678,"MEAN_MOTION_DOT":1.21e-6,"MEAN_MOTION_DDOT":0},{"OBJECT_NAME":"ONEWEB-0438","OBJECT_ID":"2022-012N","EPOCH":"2026-02-01T00:48:19.469088","MEAN_MOTION":13.10372714,"ECCENTRICITY":0.00020258,"INCLINATION":87.8753,"RA_OF_ASC_NODE":63.4172,"ARG_OF_PERICENTER":91.8473,"MEAN_ANOMALY":268.2886,"EPHEMERIS_TYPE":0,"CLASSIFICATION_TYPE":"U","NORAD_CAT_ID":51634,"ELEMENT_SET_NO":999,"REV_AT_EPOCH":19151,"BSTAR":-0.0016347855,"MEAN_MOTION_DOT":-5.58e-6,"MEAN_MOTION_DDOT":0},{"OBJECT_NAME":"ONEWEB-0439","OBJECT_ID":"2022-012P","EPOCH":"2026-02-01T00:53:06.387936","MEAN_MOTION":13.10374529,"ECCENTRICITY":0.00018052,"INCLINATION":87.8752,"RA_OF_ASC_NODE":63.4055,"ARG_OF_PERICENTER":92.4772,"MEAN_ANOMALY":267.6562,"EPHEMERIS_TYPE":0,"CLASSIFICATION_TYPE":"U","NORAD_CAT_ID":51635,"ELEMENT_SET_NO":999,"REV_AT_EPOCH":19149,"BSTAR":-0.0019562578,"MEAN_MOTION_DOT":-6.7e-6,"MEAN_MOTION_DDOT":0},{"OBJECT_NAME":"ONEWEB-0442","OBJECT_ID":"2022-012Q","EPOCH":"2026-01-31T12:28:07.004064","MEAN_MOTION":13.17648081,"ECCENTRICITY":0.0002448,"INCLINATION":87.9088,"RA_OF_ASC_NODE":33.0335,"ARG_OF_PERICENTER":86.2601,"MEAN_ANOMALY":273.881,"EPHEMERIS_TYPE":0,"CLASSIFICATION_TYPE":"U","NORAD_CAT_ID":51636,"ELEMENT_SET_NO":999,"REV_AT_EPOCH":19567,"BSTAR":9.7700234e-5,"MEAN_MOTION_DOT":5.1e-7,"MEAN_MOTION_DDOT":0},{"OBJECT_NAME":"ONEWEB-0443","OBJECT_ID":"2022-012R","EPOCH":"2026-01-31T22:02:46.912128","MEAN_MOTION":13.17650727,"ECCENTRICITY":0.00019223,"INCLINATION":87.9086,"RA_OF_ASC_NODE":32.9573,"ARG_OF_PERICENTER":79.2747,"MEAN_ANOMALY":280.8601,"EPHEMERIS_TYPE":0,"CLASSIFICATION_TYPE":"U","NORAD_CAT_ID":51637,"ELEMENT_SET_NO":999,"REV_AT_EPOCH":19577,"BSTAR":2.047898e-5,"MEAN_MOTION_DOT":2.1e-7,"MEAN_MOTION_DDOT":0},{"OBJECT_NAME":"ONEWEB-0444","OBJECT_ID":"2022-012S","EPOCH":"2026-02-01T00:38:45.979584","MEAN_MOTION":13.10370345,"ECCENTRICITY":0.00018083,"INCLINATION":87.8753,"RA_OF_ASC_NODE":63.4059,"ARG_OF_PERICENTER":93.8905,"MEAN_ANOMALY":266.2429,"EPHEMERIS_TYPE":0,"CLASSIFICATION_TYPE":"U","NORAD_CAT_ID":51638,"ELEMENT_SET_NO":999,"REV_AT_EPOCH":19150,"BSTAR":-0.0016348544,"MEAN_MOTION_DOT":-5.58e-6,"MEAN_MOTION_DDOT":0},{"OBJECT_NAME":"ONEWEB-0445","OBJECT_ID":"2022-012T","EPOCH":"2026-02-01T01:09:50.589216","MEAN_MOTION":13.10379455,"ECCENTRICITY":0.00019223,"INCLINATION":87.8773,"RA_OF_ASC_NODE":63.3766,"ARG_OF_PERICENTER":101.5496,"MEAN_ANOMALY":258.5847,"EPHEMERIS_TYPE":0,"CLASSIFICATION_TYPE":"U","NORAD_CAT_ID":51639,"ELEMENT_SET_NO":999,"REV_AT_EPOCH":19151,"BSTAR":-0.00016421969,"MEAN_MOTION_DOT":-4.5e-7,"MEAN_MOTION_DDOT":0},{"OBJECT_NAME":"ONEWEB-0446","OBJECT_ID":"2022-012U","EPOCH":"2026-02-01T07:56:11.819040","MEAN_MOTION":13.10370122,"ECCENTRICITY":0.00019417,"INCLINATION":87.8751,"RA_OF_ASC_NODE":63.3615,"ARG_OF_PERICENTER":98.772,"MEAN_ANOMALY":261.3627,"EPHEMERIS_TYPE":0,"CLASSIFICATION_TYPE":"U","NORAD_CAT_ID":51640,"ELEMENT_SET_NO":999,"REV_AT_EPOCH":19153,"BSTAR":-0.0013393648,"MEAN_MOTION_DOT":-4.55e-6,"MEAN_MOTION_DDOT":0},{"OBJECT_NAME":"ONEWEB-0448","OBJECT_ID":"2022-012V","EPOCH":"2026-02-01T00:43:32.513088","MEAN_MOTION":13.1037159,"ECCENTRICITY":0.00017764,"INCLINATION":87.8749,"RA_OF_ASC_NODE":63.4204,"ARG_OF_PERICENTER":94.3073,"MEAN_ANOMALY":265.8258,"EPHEMERIS_TYPE":0,"CLASSIFICATION_TYPE":"U","NORAD_CAT_ID":51641,"ELEMENT_SET_NO":999,"REV_AT_EPOCH":19146,"BSTAR":-0.0015807266,"MEAN_MOTION_DOT":-5.39e-6,"MEAN_MOTION_DDOT":0},{"OBJECT_NAME":"ONEWEB-0449","OBJECT_ID":"2022-012W","EPOCH":"2026-02-01T00:50:43.022688","MEAN_MOTION":13.10374247,"ECCENTRICITY":0.0002175,"INCLINATION":87.876,"RA_OF_ASC_NODE":63.3948,"ARG_OF_PERICENTER":84.847,"MEAN_ANOMALY":275.2905,"EPHEMERIS_TYPE":0,"CLASSIFICATION_TYPE":"U","NORAD_CAT_ID":51642,"ELEMENT_SET_NO":999,"REV_AT_EPOCH":19147,"BSTAR":-0.0019479352,"MEAN_MOTION_DOT":-6.67e-6,"MEAN_MOTION_DDOT":0},{"OBJECT_NAME":"ONEWEB-0451","OBJECT_ID":"2022-012X","EPOCH":"2026-01-31T21:40:54.763104","MEAN_MOTION":13.17650283,"ECCENTRICITY":0.00018926,"INCLINATION":87.91,"RA_OF_ASC_NODE":32.9096,"ARG_OF_PERICENTER":86.0721,"MEAN_ANOMALY":274.0626,"EPHEMERIS_TYPE":0,"CLASSIFICATION_TYPE":"U","NORAD_CAT_ID":51643,"ELEMENT_SET_NO":999,"REV_AT_EPOCH":19571,"BSTAR":-7.9962476e-5,"MEAN_MOTION_DOT":-1.8e-7,"MEAN_MOTION_DDOT":0},{"OBJECT_NAME":"ONEWEB-0452","OBJECT_ID":"2022-012Y","EPOCH":"2026-02-01T06:45:14.674176","MEAN_MOTION":13.17649891,"ECCENTRICITY":0.00018721,"INCLINATION":87.9092,"RA_OF_ASC_NODE":32.8838,"ARG_OF_PERICENTER":77.8067,"MEAN_ANOMALY":282.3275,"EPHEMERIS_TYPE":0,"CLASSIFICATION_TYPE":"U","NORAD_CAT_ID":51644,"ELEMENT_SET_NO":999,"REV_AT_EPOCH":19577,"BSTAR":0.0003061879,"MEAN_MOTION_DOT":1.32e-6,"MEAN_MOTION_DDOT":0},{"OBJECT_NAME":"ONEWEB-0456","OBJECT_ID":"2022-012AA","EPOCH":"2026-02-01T01:05:03.479424","MEAN_MOTION":13.10375599,"ECCENTRICITY":0.00016458,"INCLINATION":87.8771,"RA_OF_ASC_NODE":63.368,"ARG_OF_PERICENTER":95.1574,"MEAN_ANOMALY":264.9741,"EPHEMERIS_TYPE":0,"CLASSIFICATION_TYPE":"U","NORAD_CAT_ID":51646,"ELEMENT_SET_NO":999,"REV_AT_EPOCH":19151,"BSTAR":-0.0013791685,"MEAN_MOTION_DOT":-4.69e-6,"MEAN_MOTION_DDOT":0}]
